EVENT_NAME: 
EVENT_ID: TU-1976-0001
EVENT_DATE_YYYYMMDD: 19760819
EVENT_TIME_HHMMSS: 011239
EVENT_LATITUDE_DEGREE: 37.7110
EVENT_LONGITUDE_DEGREE: 29.0009
EVENT_DEPTH_KM: 19.8
HYPOCENTER_REFERENCE: GDDA
MAGNITUDE_W: 6.1
MAGNITUDE_W_REFERENCE: Vannucci G. and Gasperini P. (2004)
MAGNITUDE_L: 5.0
MAGNITUDE_L_REFERENCE: GDDA
FOCAL_MECHANISM: NF
NETWORK: TU
STATION_CODE: 2001
STATION_NAME: AI_107_DNZ_MET
STATION_LATITUDE_DEGREE: 37.762190
STATION_LONGITUDE_DEGREE: 29.092220
STATION_ELEVATION_M: 
LOCATION: 
VS30_M/S: 345
SITE_CLASSIFICATION_EC8: 
MORPHOLOGIC_CLASSIFICATION: 
EPICENTRAL_DISTANCE_KM: 9.9
EARTHQUAKE_BACKAZIMUTH_DEGREE: 234.8
DATE_TIME_FIRST_SAMPLE_YYYYMMDD_HHMMSS: 19760819_011240.000
DATE_TIME_FIRST_SAMPLE_PRECISION: seconds
SAMPLING_INTERVAL_S: 0.010000
NDATA: 1601
DURATION_S: 16.000000
STREAM: HNZ
UNITS: cm/s^2
INSTRUMENT: sensor = SMA-1 [Kinemetrics] | digitizer = Film [generic]
INSTRUMENT_ANALOG/DIGITAL: A
INSTRUMENTAL_FREQUENCY_HZ: 
INSTRUMENTAL_DAMPING: 
FULL_SCALE_G: 
N_BIT_DIGITAL_CONVERTER: 
PGA_CM/S^2: 173.290100
TIME_PGA_S: 1.630000
BASELINE_CORRECTION: BASELINE NOT REMOVED
FILTER_TYPE: 
FILTER_ORDER: 
LOW_CUT_FREQUENCY_HZ: 
HIGH_CUT_FREQUENCY_HZ: 
LATE/NORMAL_TRIGGERED: NT
DATABASE_VERSION: DYNA 1.0
HEADER_FORMAT: DYNA 1.0
DATA_TYPE: ACCELERATION
PROCESSING: none
DATA_TIMESTAMP_YYYYMMDD_HHMMSS: 
USER1: 
USER2: 
USER3: 
USER4: 
-18.514589
-27.176979
-22.777830
6.933893
3.974794
-16.255711
-15.040960
4.033058
5.440516
-1.213485
-3.023752
2.768161
8.668221
4.671418
2.960795
1.921134
-8.200632
-11.423060
-13.854730
-22.998270
-30.641560
-20.598591
3.645990
11.341580
-0.146905
0.742968
-21.340960
-26.260910
5.478354
6.374299
6.885123
16.809601
16.412371
6.276260
-12.896800
-21.216391
-19.385189
-23.420589
-10.441240
19.823130
32.340950
10.911790
-1.520828
-13.184870
-20.675369
-14.086850
-11.479340
-6.747139
9.935506
21.238840
14.149150
-9.741634
-27.305540
-25.302870
-19.326309
-14.256920
-4.473494
12.034860
16.621929
16.790390
-2.754070
-3.417340
1.843569
-9.351851
-37.130058
-43.974770
-14.174750
-11.094630
-24.186569
-28.408871
2.299654
40.662209
53.088600
14.358770
-18.140921
-50.385479
-46.048790
-10.544260
11.921060
6.874318
14.577250
45.242950
61.307861
28.084240
-24.365009
-30.085880
36.259270
94.924263
-7.912240
-52.447330
-8.170399
28.491480
-68.871147
-100.595398
-66.716621
-17.269360
-4.340699
3.304703
23.103519
35.557522
13.876000
-24.000170
-34.581680
-21.228451
-7.321932
4.042438
6.744419
-7.779412
-21.487740
-1.300238
48.768021
73.073441
36.935970
-15.171270
21.198469
51.375351
58.757919
45.574799
5.437100
-51.137810
-104.648003
-136.531906
-56.468899
14.074190
-0.639376
4.990316
36.600410
69.539963
84.287109
57.742809
13.447660
-2.023563
-15.909650
-137.692200
-157.239105
-96.276260
-20.190060
22.953550
40.073441
41.940689
35.230942
2.099136
-34.415081
-44.645100
-41.347771
-0.352277
72.280724
135.197403
101.906502
-22.663660
-80.680237
-116.027199
-91.920464
-25.651079
30.998240
14.722400
-57.094940
-92.797523
-68.597298
-3.915685
75.762703
142.696503
173.290100
107.714798
-23.698830
-73.462334
-28.055229
-55.883228
-68.938110
-59.060860
-44.283058
-34.151539
-6.053463
72.401520
117.994102
50.752979
-65.322189
-102.057297
-52.231590
36.951839
108.096100
106.142799
8.413018
-69.351379
49.228588
82.692230
-7.105814
-83.994217
-32.042839
8.036674
16.958389
-18.157440
-60.470219
-51.211750
15.409570
57.591919
33.856461
-16.099489
-22.175770
-2.433798
-38.136879
-60.334629
-56.343922
-3.072182
79.222557
141.162994
105.434601
41.709221
25.397760
26.599810
30.190620
21.838511
-13.100270
-18.827290
-16.291691
8.208980
43.988522
68.088737
-49.459930
-48.108311
8.995926
45.203072
20.953320
-55.043430
-98.736122
-80.780693
-44.286221
-50.546890
-71.450813
-46.288109
-4.387872
-1.186336
-5.357688
22.150499
-19.690260
-33.727982
-6.648552
13.062920
-5.029606
-41.648609
-50.140781
-2.338056
47.693340
16.344469
-5.801961
1.031979
8.731310
15.410930
-9.561041
-45.293819
-5.941179
62.137390
85.870270
20.592430
-38.584179
-37.176849
2.849622
59.519920
112.882202
144.429794
-20.699739
-53.040359
-13.935340
28.719740
58.012630
58.368130
10.853990
-38.572430
-26.793289
-13.020130
-12.012170
-14.191770
-15.983500
-33.926140
-55.248470
-18.850269
34.853531
44.167130
15.209670
-10.564070
41.004700
59.776241
40.732491
10.891790
-10.590890
-0.877691
51.992599
87.477951
70.258827
57.741650
46.891060
32.115589
-62.004520
-64.791183
-52.681629
-74.253990
-95.753609
-93.867332
-73.231171
-40.708340
-3.600951
29.858299
52.246231
54.450779
32.599621
35.089359
29.287609
-6.814293
-32.506741
-29.599409
-11.195630
8.090571
16.400290
11.266080
1.485361
-0.601171
8.079340
16.264820
5.250387
7.786533
20.379351
14.844190
21.029520
41.564510
45.328209
14.815640
4.947449
-3.064252
-32.677608
-53.949108
-37.454971
-0.705079
15.754660
18.200911
18.282110
4.937019
-31.016251
-17.640539
-13.586340
-22.237141
-35.339500
-49.720730
-62.188519
-69.975166
-65.743057
-25.446480
38.207199
87.665771
83.884666
13.725020
-39.817871
-45.768101
-33.281460
-18.926050
-11.240880
-14.357510
-1.520754
7.504616
-4.114845
-19.036421
-15.557280
-12.812300
-24.387470
-44.090408
-60.201118
-59.767620
-29.424990
-1.704233
6.172285
9.839176
10.924530
-3.460335
-32.597858
-60.146198
-68.671547
-47.024109
-5.000194
32.217491
43.122051
29.737120
4.636847
-16.146179
-14.842650
24.973070
64.519997
65.788223
37.983231
2.468447
-18.740110
-17.133190
-3.923919
2.764909
-10.885650
-30.880030
-28.412251
-19.439301
-26.808500
-39.489910
-35.783798
-42.496719
-49.607769
-47.526348
-41.032871
-36.698738
-30.924770
-4.316328
35.760990
42.676609
19.608370
7.108939
-23.693939
-42.167080
-51.091129
-56.922550
-50.642731
-26.059160
4.447560
22.287180
9.012578
-25.518311
-37.926380
-11.278330
22.550449
29.519810
20.359159
14.190710
31.149260
60.933842
68.551987
37.799671
5.889099
-1.759572
-3.695511
-12.320570
-20.746130
-19.198120
-7.238768
7.907598
16.954840
18.787840
12.583240
-15.885580
-38.669910
-43.588280
-46.323509
-55.917728
-63.665310
-47.690109
-12.684870
5.480502
16.173611
14.093290
2.968881
-9.011466
6.302393
10.063390
6.857566
3.542836
-3.033896
-23.505051
-24.773180
-10.271760
7.318397
17.044621
17.368940
13.353490
8.614742
5.908161
-23.842489
-35.021851
-32.471458
-27.368441
-23.712660
-26.354759
-26.893070
-13.294920
1.383120
5.191026
14.224790
33.767689
23.418610
0.374231
-8.021345
-9.259238
-16.311970
-26.293510
-26.935480
-23.361629
-18.632940
-11.311730
-4.577274
1.162834
14.832160
5.147457
-2.770078
-9.953723
-14.564990
-21.614370
-31.988171
-33.245060
-10.537300
13.144330
15.070310
5.514052
-0.766304
-6.935638
-21.187429
-27.878380
-25.690180
-20.620701
-16.601210
-16.761990
-23.141159
-28.498510
-22.948740
-9.528873
-4.575622
-12.360070
-11.316540
-4.882957
-3.446482
-14.513460
-26.528481
-18.263929
11.276890
29.824249
24.901880
6.226166
-12.852320
-20.673491
-15.183870
-5.466586
-6.591428
-13.239510
-15.096360
-24.374710
-27.789680
-22.164921
-10.690160
3.643377
17.641359
28.198999
32.931999
18.442789
-9.336022
-19.117210
-16.340670
-15.133340
-15.083250
-15.077820
-15.267430
-19.673000
-28.837469
-38.138760
-43.433891
-59.641418
-59.249290
-43.222839
-19.949560
2.384585
16.034531
28.557400
42.706879
63.385300
59.575901
35.163151
7.709575
-6.001610
-8.470029
-8.545823
-7.804491
-1.889964
4.304110
4.572680
1.269139
-0.807847
0.983252
5.809628
10.722320
12.768090
11.677620
8.462076
4.378137
0.848886
-0.899947
-1.221887
-3.685068
-13.393850
-20.576500
-23.998039
-27.503321
-29.060829
-29.290119
-29.292009
-25.739281
-16.016430
-9.684075
-8.435468
0.380551
20.580231
31.917130
31.467661
28.125151
27.062290
26.975750
26.978951
22.469191
23.108110
25.806641
23.879499
20.754919
17.153980
7.725461
0.527919
4.126637
-1.331683
-8.396747
-13.455890
-12.681260
-8.221364
-3.521165
-2.101858
-11.252710
-11.017990
-8.734113
-8.257772
-8.236630
-12.704030
-22.634439
-27.891911
-24.629589
-15.139970
-3.093678
7.319374
12.490100
13.459430
13.496780
13.502200
13.507630
13.513050
9.731549
7.358624
9.761039
14.523900
18.508421
19.810961
19.398451
15.013520
12.767300
10.015360
6.056847
2.198938
-0.218584
-11.003230
-14.385600
-14.502830
-14.497410
-10.344860
2.509232
11.662120
12.455330
9.579747
5.548957
1.817286
-0.319116
-4.446513
-10.282680
-19.105301
-19.846781
-15.573730
-9.714193
-4.373422
-1.401892
-0.782489
4.642924
11.810650
13.649380
13.719180
13.724600
13.730030
13.735450
13.740880
12.433920
6.747188
-1.180181
-6.591584
2.802005
11.765390
13.712760
13.784270
14.361280
16.162291
18.434179
19.894030
7.606594
-0.220745
-4.466693
-7.212711
-20.281040
-24.810270
-22.396950
-21.512190
-21.474581
-20.689409
-17.153311
-12.152170
-8.674751
-7.846917
-7.792670
-7.786402
-7.780978
-5.144307
1.640622
5.608045
1.388474
4.662677
5.068695
3.195383
1.225941
-0.092768
0.853287
7.297552
12.726500
13.927810
14.676120
17.489000
19.861641
23.821501
31.014400
35.547279
40.658569
43.839241
48.274719
53.055248
55.027489
41.311970
17.981270
8.011568
4.864923
1.331304
-2.757339
-6.025442
-7.722493
-12.501460
-13.274740
-11.429760
-9.181745
-7.856381
-6.831075
-4.625865
-2.030781
-0.620448
-4.020689
-10.765730
-13.401840
-12.454340
-10.233240
-8.294157
-7.611566
-7.413362
-5.126201
-1.719732
-0.832481
-3.468018
-8.642795
-14.532090
-19.090410
-20.684429
-18.338791
-14.972710
-11.262320
-6.241745
3.957919
6.908333
7.019179
8.505433
12.896400
13.252420
11.055370
8.589547
7.297668
6.125877
3.804430
1.281744
0.179144
4.553643
11.571680
14.045480
14.314110
14.326720
14.332140
14.337560
10.928410
-7.744634
-10.435900
-4.119412
0.113727
5.574678
9.026855
12.548830
14.138080
14.384280
14.397230
14.402660
14.408080
14.413510
14.418930
15.477770
18.595470
20.512260
21.313829
22.410021
23.952480
25.613871
27.026720
27.878731
27.324209
24.027920
21.470520
20.931450
20.918381
20.668659
18.148319
15.307910
7.321908
1.362460
0.116917
0.079981
0.085406
0.090830
0.096255
0.101679
0.107104
0.112528
0.117953
0.123377
0.128801
1.444970
7.575616
13.215390
18.679970
20.757429
21.029810
21.043091
19.468740
15.221070
10.383420
7.899919
8.431447
10.773070
13.285020
14.175880
9.346101
7.564236
7.455154
7.416219
5.189883
1.667678
0.394907
0.257544
0.258988
0.264412
0.269837
0.275261
0.280685
0.286110
1.282592
6.438480
14.074430
19.661440
21.084921
21.192841
21.200451
21.205879
21.211300
21.216730
21.208349
20.117479
17.289749
13.470760
9.978763
8.026798
6.226241
2.661168
0.732792
0.405368
0.400023
0.519082
1.202944
2.492066
4.121813
5.732312
6.967417
7.554287
7.666581
7.675535
8.047015
10.822420
13.966040
13.903400
10.090670
4.813358
1.311198
1.133531
3.163959
5.794532
7.396095
7.728720
7.746018
7.868803
10.372810
13.805270
17.360420
20.599300
21.400480
21.433710
20.046200
14.657920
7.256710
2.001140
-0.334615
-3.866732
-6.162925
-6.610440
-6.620150
-6.614726
-6.474029
-4.106550
-0.728032
0.490336
0.634773
0.644559
2.047562
6.126114
11.912060
17.415831
20.730141
21.503071
21.557529
21.563890
21.569321
20.341770
14.901030
7.266867
2.015354
1.887250
5.138360
7.276804
-2.720402
-6.298630
-6.476953
-6.473691
-6.468266
-5.860816
-3.791755
-1.160835
0.440642
0.773249
0.790548
0.796006
0.801431
0.806855
0.812280
0.817704
0.823129
0.828553
1.415138
3.816490
7.661694
11.648430
14.396200
15.220870
15.316850
15.324810
14.756620
12.724720
10.099740
8.473770
8.138899
8.131251
8.344142
10.819660
15.435930
19.780319
20.763130
16.758421
15.443360
15.400750
15.406180
15.411600
15.417030
15.422450
15.427880
15.433300
15.438730
14.898320
12.893030
10.263850
8.602959
6.905965
3.497732
1.429011
1.042246
1.034681
6.808148
10.603130
14.176070
18.004629
20.828369
22.081110
24.853930
28.100060
28.188410
24.885889
22.465130
21.054741
18.925270
16.723660
15.738840
15.579630
15.579760
15.104440
11.841700
6.605489
2.455865
1.222812
0.835282
0.274051
-0.525452
-1.494972
-2.548060
-3.590858
-4.530420
-5.282953
-5.781250
-5.974326
-5.270045
-3.261942
-0.263801
3.064700
5.986049
7.853098
8.532369
9.540169
11.324330
13.373320
14.981420
15.623390
15.728480
15.737070
15.044990
11.689960
6.050324
0.017988
-4.314218
-5.725858
-5.898852
-5.898701
-5.893276
-5.887852
-5.882427
-5.877003
-5.871579
-5.866154
-5.860730
-5.855305
-5.849881
-5.844456
-5.839032
-5.833608
-4.532471
-0.318313
4.919808
8.004259
8.625510
8.736634
9.241019
10.215050
11.517870
12.942610
14.262600
15.267870
15.798730
15.285440
12.840170
8.978521
5.022607
2.346242
2.132958
5.034006
7.968620
8.702407
8.743715
8.749573
8.754997
8.487222
7.592629
6.160592
4.506042
2.997367
1.970588
0.780238
-4.094440
-5.594771
-5.643752
-6.303680
-11.495430
-17.446140
-19.143299
-19.264111
-19.261410
-19.255980
-19.250561
-19.245131
-19.239710
-19.234289
-19.228861
-19.223440
-19.218010
-19.212589
-19.207161
-19.201740
-19.196310
-19.190889
-18.343220
-15.745110
-11.982230
-8.346765
-6.097892
-5.548309
-5.503563
-5.497293
-5.491868
-5.486444
-5.481019
-5.475595
-5.470170
-4.817927
-2.789217
-0.234665
1.402663
1.766161
1.788484
1.794102
1.799526
1.531766
0.637222
-0.794738
-2.449197
-3.957790
-4.984514
-6.266930
-10.512180
-13.595720
-18.195881
-24.277250
-29.787580
-32.814251
-32.103920
-28.731520
-26.629290
-26.224190
-26.205509
-26.200081
-25.049540
-15.091230
-12.276310
-13.470520
-15.440620
-17.374281
-18.598129
-16.188160
-12.640150
-11.724930
-11.687550
-11.521300
-10.819770
-9.604563
-8.135394
-6.736957
-5.718411
-5.247276
-2.992252
1.840429
6.761815
8.838128
8.029927
5.676424
3.299756
2.230288
2.054887
2.054475
2.059899
2.065323
2.070748
2.076172
2.081597
2.087021
2.092446
2.097870
2.103294
1.989783
1.063359
-0.702726
-2.741709
-4.345860
-4.985404
-5.081801
-5.079611
-5.297491
-6.759984
-9.087154
-10.914290
-11.427080
-11.469360
-11.465150
-11.459720
-12.374350
-15.603270
-18.110630
-17.772120
-15.507470
-12.950670
-11.661950
-11.423970
-11.410910
-11.405480
-11.400060
-11.394630
-11.389210
-11.383780
-11.378360
-11.372930
-11.367510
-11.362080
-11.356660
-11.351240
-11.345810
-11.099700
-9.599632
-7.257035
-5.444168
-4.103930
-0.701005
1.802986
2.329757
0.520525
-5.631229
-10.268530
-11.247310
-11.275290
-11.269870
-11.264450
-11.259020
-11.253600
-11.248170
-11.242750
-11.237320
-11.231900
-11.226470
-11.221050
-11.215620
-11.210200
-11.204780
-11.199350
-11.193930
-11.188500
-11.183080
-11.162070
-10.965610
-10.518420
-9.844419
-9.002409
-8.066567
-7.119395
-6.244397
-5.518677
-5.006105
-4.751650
-4.696678
-4.689074
-4.683628
-4.678204
-4.672779
-4.667355
-4.661930
-4.656506
-4.651082
-3.774626
-0.561912
2.012587
2.577813
2.602342
2.607767
2.613191
2.618616
2.624040
2.629464
2.634889
2.640313
2.645738
2.651162
2.656587
2.662011
2.667435
2.672860
2.557985
0.056664
-3.361052
-4.434951
-4.524015
-4.520895
-4.515471
-4.510046
-4.504622
-4.499197
-4.493773
-4.488348
-4.482924
-4.477499
-4.472075
-4.466650
-4.008664
-0.950109
2.037649
2.090062
0.086132
-2.454845
-4.062819
-4.407262
-4.538165
-5.168478
-6.328868
-7.775081
-9.185403
-10.245730
-10.717230
-9.825711
-7.021713
-2.745467
2.061471
6.333475
9.123635
9.254923
3.813913
-2.443760
-4.202501
-4.322995
-4.320191
-4.314766
-4.309342
-4.303917
-4.298493
-4.293069
-4.287644
-4.282220
-4.276795
-4.271371
-4.265946
-3.437374
-0.252925
2.377048
2.962136
2.987473
2.992901
2.998326
3.003750
3.009174
3.014599
3.020024
3.025448
3.030872
3.036297
3.041721
3.047145
3.052570
3.057995
3.063419
3.068843
3.074268
3.079692
3.085116
3.090541
2.320448
0.118721
-2.458905
-3.842343
-4.099906
-4.103214
-4.097789
-4.092365
-4.086940
-4.081516
-4.076091
-4.070667
-4.065243
-4.059818
-4.054394
-4.048969
-4.043545
-4.038120
-4.032696
-4.027272
-4.021847
-4.016423
-4.010998
-4.005574
-4.000149
-3.994725
-3.989300
-3.983876
-3.978451
-3.973027
-3.967603
-3.962178
-3.956754
-3.951329
-3.945905
-3.940480
-3.935056
-3.929632
-3.924207
-3.918783
-3.913358
-3.907934
-3.902509
-3.897085
-3.891661
-3.886236
-3.880812
-3.875387
-3.869963
-3.864538
-3.859114
-3.916188
-4.194921
-4.724035
-5.459772
-6.336472
-7.275898
-8.194254
-9.009610
-9.649175
-10.055740
-10.199780
-10.216820
-10.212100
-10.206680
-10.003790
-7.733602
-4.804847
-3.721767
-2.875177
-1.396857
0.646331
3.019799
5.447665
7.647707
9.364247
10.397940
10.676030
10.472430
9.951855
9.181147
8.229739
7.182476
6.132698
5.173969
4.391782
3.855975
3.614538
3.574822
3.578741
3.584164
3.589589
3.595013
3.600437
3.605862
3.611286
3.616711
3.622135
3.627560
3.632984
3.638408
3.643833
3.649257
3.571986
1.366567
-2.047480
-3.378827
-3.555634
-4.100470
-5.454321
-7.254362
-8.877854
-9.759759
-9.592279
-8.431628
-6.678532
-4.939223
-3.815154
-3.694360
-4.616860
-6.260777
-8.053984
-9.372572
-9.793338
-9.502430
-8.726663
-7.620443
-6.360602
-5.147492
-4.174003
-3.594753
-3.393924
-3.103912
-2.544777
-1.742482
-0.767056
0.295475
1.351360
2.307438
3.079397
3.599258
3.820341
3.519347
2.548312
1.071091
-0.585209
-2.051911
-3.002406
-3.279528
-3.202576
-2.959210
-2.586160
-2.098814
-1.516245
-0.861295
-0.159666
0.561088
1.272657
1.947098
2.557932
3.081202
3.496414
3.787350
3.942711
3.982950
3.990940
3.996421
4.001845
4.007270
4.012694
4.018119
4.023543
3.985845
3.786357
3.396179
2.835136
2.135774
1.338661
0.489989
-0.361078
-1.165242
-1.875902
-2.451841
-2.859595
-3.075382
-3.066851
-2.769510
-2.185165
-1.363027
-0.375463
0.690440
1.740651
2.682526
3.433033
3.926102
4.119505
4.040221
3.727189
3.199286
2.474710
1.577987
0.539423
-0.605908
-1.819347
-3.059946
-4.285843
-5.455672
-6.529953
-7.472409
-8.251198
-8.839973
-9.218774
-9.374695
-9.304543
-9.016318
-8.530375
-7.880243
-7.110879
