EVENT_NAME: 
EVENT_ID: TU-1976-0001
EVENT_DATE_YYYYMMDD: 19760819
EVENT_TIME_HHMMSS: 011239
EVENT_LATITUDE_DEGREE: 37.7110
EVENT_LONGITUDE_DEGREE: 29.0009
EVENT_DEPTH_KM: 19.8
HYPOCENTER_REFERENCE: GDDA
MAGNITUDE_W: 6.1
MAGNITUDE_W_REFERENCE: Vannucci G. and Gasperini P. (2004)
MAGNITUDE_L: 5.0
MAGNITUDE_L_REFERENCE: GDDA
FOCAL_MECHANISM: NF
NETWORK: TU
STATION_CODE: 2001
STATION_NAME: AI_107_DNZ_MET
STATION_LATITUDE_DEGREE: 37.762190
STATION_LONGITUDE_DEGREE: 29.092220
STATION_ELEVATION_M: 
LOCATION: 
VS30_M/S: 345
SITE_CLASSIFICATION_EC8: 
MORPHOLOGIC_CLASSIFICATION: 
EPICENTRAL_DISTANCE_KM: 9.9
EARTHQUAKE_BACKAZIMUTH_DEGREE: 234.8
DATE_TIME_FIRST_SAMPLE_YYYYMMDD_HHMMSS: 19760819_011240.000
DATE_TIME_FIRST_SAMPLE_PRECISION: seconds
SAMPLING_INTERVAL_S: 0.010000
NDATA: 1601
DURATION_S: 16.000000
STREAM: HNN
UNITS: cm/s^2
INSTRUMENT: sensor = SMA-1 [Kinemetrics] | digitizer = Film [generic]
INSTRUMENT_ANALOG/DIGITAL: A
INSTRUMENTAL_FREQUENCY_HZ: 
INSTRUMENTAL_DAMPING: 
FULL_SCALE_G: 
N_BIT_DIGITAL_CONVERTER: 
PGA_CM/S^2: -348.526794
TIME_PGA_S: 2.840000
BASELINE_CORRECTION: BASELINE NOT REMOVED
FILTER_TYPE: 
FILTER_ORDER: 
LOW_CUT_FREQUENCY_HZ: 
HIGH_CUT_FREQUENCY_HZ: 
LATE/NORMAL_TRIGGERED: NT
DATABASE_VERSION: DYNA 1.0
HEADER_FORMAT: DYNA 1.0
DATA_TYPE: ACCELERATION
PROCESSING: none
DATA_TIMESTAMP_YYYYMMDD_HHMMSS: 
USER1: 
USER2: 
USER3: 
USER4: 
-13.107400
-13.104980
-12.865700
-11.157570
-8.408502
-6.291948
-5.723029
-5.677850
-5.688116
-9.868561
-17.273970
-15.907600
-8.163655
-8.269934
-11.706840
-10.059950
-6.592403
-5.679070
-5.650419
-6.907514
-10.566580
-12.674780
-13.044200
-13.051850
-13.049440
-13.047020
-12.829830
-7.648205
-9.678229
-12.456490
-12.602690
-7.391088
-5.667502
-5.614191
-5.611775
-5.609360
-5.606945
-14.117600
-17.566900
-8.955052
-0.272924
-8.245806
-10.398280
-3.946228
0.427453
-14.027350
-18.788509
-14.923030
-9.442026
-6.230774
-6.349646
-8.711495
-12.050790
-12.884850
-10.633750
-7.077487
-5.721483
-5.560110
-5.553811
-5.551396
-5.548981
-5.546566
-5.636039
-11.016290
-8.512456
-5.974317
-6.152545
-11.228060
-11.096160
-7.420401
-4.198080
0.399068
-3.031400
-10.247040
-8.003709
-9.668645
-12.312960
-10.926410
-7.223104
-3.797724
0.310729
-7.512119
-21.234631
-23.690781
-11.079510
-0.457636
-0.105291
-3.639386
-5.244986
-5.472984
-5.476526
-18.398380
-20.838341
-20.316090
-20.294430
-20.292021
-16.723841
-6.265312
0.329488
-7.871984
-21.855730
-23.141520
-10.586250
-0.320568
1.908840
1.973759
-5.915295
-21.493999
-12.343390
7.867150
12.366610
-0.157263
-10.481580
-4.856376
9.072474
6.247381
-13.914040
-20.058670
-20.236469
-20.234051
-18.270439
-8.923540
-16.182711
-17.484030
-10.721300
-6.350886
-8.008032
-11.562680
-6.666072
-0.810031
-3.873682
-5.333014
-5.375088
-11.612380
-23.839350
-32.310108
-29.276140
-18.580240
-13.896100
-16.046909
-19.252769
-7.458138
-4.435498
-9.289661
-1.232899
1.972977
-6.774393
-20.807800
-21.437401
-25.006809
-25.369471
-22.173870
-24.141251
-12.514670
3.493596
8.317472
4.506807
-8.611526
-12.608490
-12.723390
-12.720970
-11.791320
4.272454
24.686350
27.143240
32.169941
36.213490
14.421480
-20.773529
-38.164452
-61.541901
-80.122818
-76.511360
-55.951889
-32.964310
-21.842850
-13.219420
3.040363
23.978901
42.075260
50.691700
37.895531
34.867458
44.690029
49.889641
25.065140
-12.245680
-22.284611
-10.181720
-0.341093
-13.551980
-11.664370
11.780000
27.977489
40.516010
54.693611
64.688423
72.018593
73.814629
75.720627
80.540413
85.819931
87.692612
71.201500
35.835251
1.952219
-0.394970
-4.418127
-14.880750
-23.671860
-24.458269
-15.508540
-7.172735
-20.679939
-55.625271
-72.593857
-65.820663
-57.627750
-45.116791
-14.723770
5.229697
14.343670
11.439330
9.151039
7.985087
3.636999
-12.662670
-50.519390
-91.337761
-109.787003
-110.522903
-107.471397
-114.336098
-140.789703
-159.772995
-148.490707
-162.593796
-171.010406
-165.004898
-143.159393
-99.146393
-44.740070
0.424060
20.828560
39.137360
66.888657
143.521301
239.252502
293.651306
257.372498
247.516006
286.741608
313.398193
299.561096
258.906189
217.715302
119.655296
89.457581
63.949940
51.453251
43.635490
39.080730
48.854221
47.917721
37.700531
29.310890
-10.384000
-56.754478
-80.017860
-111.324600
-130.256104
-99.108994
-43.836250
-26.013081
-42.747829
-64.543869
-98.922333
-172.283005
-251.297607
-287.635315
-298.756500
-300.671814
-318.856201
-348.526794
-338.443604
-315.263885
-292.398010
-230.458893
-150.054398
-101.592201
-69.254219
-30.958019
8.078211
37.073952
73.846298
105.959702
120.537598
151.283203
206.448303
268.532593
315.053314
308.155609
208.318695
171.350204
160.375305
128.159805
85.248016
58.466438
74.537758
89.886742
96.719582
109.349503
129.716003
147.346100
148.470505
111.717201
50.244179
2.029554
1.431939
48.750229
79.992104
41.134548
21.025009
9.940187
3.161742
-13.718900
-52.610291
-107.983803
-167.065598
-216.120804
-243.745499
-222.523605
-115.355698
26.650410
113.525299
140.399002
142.806198
140.524902
142.658905
145.813202
153.276901
171.330597
176.484299
118.708702
42.400242
14.733540
-1.082818
-10.806240
-25.822069
-54.478401
-83.639091
-95.115990
-66.348763
-25.406990
-16.264700
-29.936359
-56.463921
-90.948273
-127.817299
-161.127106
-185.507294
-197.027298
-214.551102
-238.470306
-249.368896
-223.590805
-193.388901
-172.566498
-152.681000
-92.729874
-6.629649
56.638840
76.751328
82.215599
90.942162
103.933998
114.445900
116.221298
109.724197
104.033798
64.151779
-5.859022
-34.414810
-19.895840
11.818460
37.463451
36.799629
2.626574
-26.820660
-22.308350
10.626790
57.645481
101.599197
126.525703
113.052200
66.338013
40.189690
27.189341
29.154961
35.065022
51.142540
72.623497
86.220993
78.026207
44.625210
5.018521
-15.648520
-21.462330
-26.276501
-31.140869
-32.227341
-17.745979
2.172978
5.509138
-10.668680
-39.359112
-69.972931
-91.386620
-93.198898
-61.941299
-11.210640
27.306620
29.385080
-4.924580
-53.115040
-84.231796
-85.761848
-68.381561
-42.080589
-16.548410
-1.058041
20.724110
17.839359
11.242960
25.196600
32.323910
36.027470
37.507149
32.890579
26.437401
24.380270
24.206490
24.699869
34.499828
65.867058
82.051483
63.387798
28.584530
2.528853
-6.045803
-14.414050
-25.156639
-31.951780
-25.165091
-20.262239
-19.444290
-19.420139
-10.689030
7.527431
14.127010
10.926770
17.395380
34.811680
52.319359
58.388531
45.388008
19.272341
-3.630188
-16.145081
-15.595020
-10.371250
-6.032442
-4.695002
-3.405654
7.467376
20.327881
24.035240
24.285070
25.777140
40.610340
38.633911
16.560579
-15.939000
-46.987999
-65.308746
-62.997631
-39.663731
-8.425374
12.106820
11.662210
-5.207763
-26.442530
-38.345470
-22.796181
9.723248
22.726721
24.296940
24.337950
19.698280
8.957348
4.164662
7.589869
15.083490
21.727949
22.786360
13.914720
5.085125
5.374826
12.057230
19.798309
22.990761
3.599238
-10.002060
-27.608360
-38.153141
-28.004290
-10.536100
-6.705868
-12.952200
-18.118950
-17.126051
-13.452110
-16.060249
-23.604790
-25.782249
-25.843370
-23.061470
-10.995730
8.522790
28.573740
41.878632
52.447899
61.113239
66.782143
40.884361
-13.706320
-38.698681
-50.547359
-59.641281
-65.683167
-75.950058
-81.010513
-67.107193
-51.018768
-21.811501
11.168210
28.711210
47.484570
40.708092
33.804279
35.316799
37.856411
38.456261
38.477081
35.817471
15.960380
-5.680037
-7.933795
4.418344
20.565781
29.984360
29.934540
26.266790
23.617041
15.582560
2.657701
-8.028823
-8.256530
7.813727
21.422760
20.607630
11.190610
1.021042
-3.646377
-6.800961
-11.800210
-16.721359
-18.545160
-14.257430
-4.059645
8.588831
19.101839
23.630230
19.616920
12.389170
11.905760
21.158480
34.681381
43.821911
45.887100
45.978981
46.322380
51.508999
49.056808
34.397739
12.285840
-9.252604
-22.394171
-32.273201
-40.559921
-54.268318
-66.357063
-67.279457
-60.745159
-49.686291
-35.947910
-21.744579
-9.365664
-0.806398
3.188010
13.760210
17.100870
19.688080
29.322790
36.915440
33.829479
12.212650
-0.773393
1.795775
9.692895
15.612370
17.581881
19.607969
22.295240
24.167740
40.615108
50.225700
45.437222
35.107861
27.096279
25.722601
29.042910
31.366640
26.709600
19.386580
4.916331
-3.055055
-7.024251
-10.441590
-8.831614
2.843045
19.122570
29.719950
32.019138
32.105839
31.530720
18.825830
-6.770560
-30.624180
-39.227440
-40.340858
-40.366619
-40.364201
-40.361790
-40.359379
-40.356960
-36.611809
-29.160940
-27.660210
-31.493059
-28.544149
-21.851789
-19.243719
-16.954411
4.261384
30.351130
39.497231
46.401772
57.654861
71.299011
84.176292
93.293701
96.021782
91.446587
83.404243
66.363319
43.432331
22.848379
12.088120
10.009210
9.952417
9.634777
4.877973
-5.311026
-17.719351
-27.852751
-32.284660
-37.685951
-47.714230
-57.421909
-60.894611
-58.557751
-53.470139
-49.153568
-47.203461
-43.906319
-40.969860
-40.277901
-39.126431
-32.595951
-21.118071
-8.664386
0.247617
4.004270
10.433300
16.087481
20.757721
31.408400
48.024891
66.817429
83.417877
93.967697
96.478882
93.706207
90.700249
83.663643
63.847961
40.047359
27.321680
24.353670
22.726700
20.603889
18.687380
17.674129
13.534390
0.514682
-20.187241
-43.814548
-64.874153
-78.469772
-82.546333
-82.812813
-80.473083
-77.442970
-72.269234
-52.874722
-25.830910
-7.990073
3.831313
24.431311
36.513828
35.906689
29.384520
21.045111
13.967860
10.701710
10.127410
11.553040
15.898770
21.197941
24.307760
29.034189
40.532230
53.598282
59.867119
53.084831
35.592239
18.163530
11.190040
10.163870
5.814909
4.710943
7.667688
9.696813
8.752483
5.598458
1.552112
-1.910950
-3.568141
-8.386801
-20.555580
-37.081692
-52.003010
-59.899590
-56.588200
-41.258511
-18.931110
2.302690
14.731990
32.175549
43.732281
44.446041
41.770351
39.650089
39.830051
43.589760
50.471588
58.908100
66.939339
72.698921
74.628838
67.159653
49.107590
26.229691
6.813673
-2.149062
-3.728479
-5.011669
-8.666278
-11.433880
-16.878090
-20.380480
-26.108810
-34.268608
-41.966690
-46.406391
-45.260311
-37.444599
-25.339149
-13.318390
-5.747053
-3.869331
-3.469238
-0.588884
4.517569
8.819916
9.160685
3.095381
-8.043902
-20.302670
-29.229691
-31.983379
-30.578840
-26.897829
-22.032221
-17.118731
-13.299050
-11.460570
20.842300
36.972172
39.092831
39.022942
33.940449
20.937950
2.141552
-18.103750
-35.090981
-44.870548
-45.073761
-35.694920
-20.075809
-3.881750
7.006696
10.214630
11.504880
13.492500
16.161659
19.089630
21.804770
23.869780
24.952141
23.407530
17.168051
9.258413
4.704462
3.809949
3.787553
3.789968
3.853217
5.871944
10.683600
16.874170
22.205509
24.741711
23.423750
18.349899
10.662740
2.148877
-5.211867
-9.707756
-12.259600
-19.648050
-30.403021
-37.951820
-38.696678
-34.401241
-26.412411
-15.723000
-3.597343
8.531142
19.228720
27.230850
31.591660
31.595230
26.775049
18.100260
7.664915
-1.993026
-8.524318
-10.533150
-9.351620
-6.757420
-4.452712
-4.075582
-7.137573
-10.200130
-10.921670
-10.940950
-10.664430
-6.590330
1.106392
7.936871
9.769959
6.814611
1.634674
-2.356180
-4.312414
-7.740207
-10.340590
-10.896370
-10.909590
-10.907180
-10.904760
-10.902350
-10.899930
-10.424030
-8.481349
-5.795844
-3.941622
-3.498653
-3.472306
-3.356122
-1.358666
3.267487
9.673405
16.376860
21.820280
24.739000
29.292170
32.069691
31.615101
29.733660
27.605009
26.017611
24.483360
14.030520
-4.300958
-19.674210
-25.638960
-32.462921
-38.275230
-37.337090
-30.695009
-22.925579
-18.966970
-17.620871
-15.993430
-13.857660
-11.965080
-11.002170
-10.817980
-10.810570
-10.033490
-4.124860
6.987348
19.558990
29.032431
32.622219
35.729210
40.615280
45.037739
45.115410
40.794659
38.054001
34.809280
30.759331
27.330721
25.757450
25.483000
25.477909
25.480330
25.482740
25.485161
25.487570
25.489990
25.142269
20.223930
9.787171
-2.859044
-13.133960
-17.352381
-15.717580
-12.195190
-11.180960
-12.830880
-15.584620
-17.603251
-18.105780
-18.134710
-18.012280
-15.545790
-10.534170
-5.639218
-3.613595
-3.301369
-3.290795
-3.288380
-3.285964
-3.218236
-0.762008
2.846093
4.792067
7.857090
10.209270
10.720590
10.737290
10.739710
10.650410
8.271248
3.361913
-1.291473
-2.854372
-1.519265
1.191988
3.436181
4.106317
4.292511
6.548480
11.549560
17.755430
22.920601
25.180639
24.274611
21.041981
16.771959
13.019490
11.148700
12.591850
16.185860
17.930920
18.204041
18.213591
16.977261
12.503910
5.171107
-3.341005
-11.052850
-16.170731
-17.807980
-18.007071
-18.009680
-18.007259
-18.004850
-18.002430
-18.000019
-17.997601
-17.552950
-15.123260
-10.333170
-3.575593
4.522565
13.208620
21.675249
29.135500
34.896019
38.421440
39.387199
37.775520
34.023369
29.047001
24.056820
20.266541
18.589029
18.298809
18.293289
18.102610
16.476370
13.747770
11.564690
10.946690
10.895440
10.896690
10.899110
6.058884
-7.563320
-16.219191
-17.877069
-17.920309
-17.917900
-17.691660
-15.058990
-9.649185
-3.206763
1.935214
3.990085
3.929305
2.955618
1.414633
-0.543062
-2.735268
-4.957983
-7.004373
-8.683991
-9.840487
-10.366130
-6.554784
4.367761
17.219200
24.366840
26.680519
29.129990
31.770920
32.961750
31.992050
28.944620
24.205830
18.354990
12.106730
6.224183
1.425838
-1.702185
-2.875165
-3.805845
-5.526477
-7.670742
-9.466147
-10.248770
-9.002408
-5.220378
0.642806
7.646613
14.662260
20.559080
24.386749
25.191980
19.592581
9.136534
0.169151
-2.661215
-2.960020
-2.964747
-2.962332
-2.959916
-2.957501
-2.955086
-2.952671
-2.950256
-2.947840
-2.867025
-1.502323
1.145236
3.545176
4.226255
3.063258
0.478343
-2.899698
-6.284375
-8.888392
-10.105070
-8.472519
-3.658324
1.621321
4.076837
4.493714
4.507274
4.509689
4.512105
4.514520
4.516935
4.519351
4.521766
4.536791
5.505791
7.738793
10.020320
10.974170
11.122300
11.128550
10.060450
6.960684
4.948362
4.559129
4.550748
4.553163
4.555578
4.557993
4.560408
4.562823
4.565238
4.567653
4.570068
3.080752
-1.469942
-6.873593
-9.702398
-9.626447
-8.059267
-5.928616
-4.017772
-3.019849
-1.250734
3.185026
8.238518
10.565100
6.412855
4.713866
4.610500
4.611127
4.613542
4.615957
4.618372
4.620788
4.624658
4.986975
6.060521
7.811368
10.028780
12.442270
14.757430
16.691830
18.009569
18.549240
18.181351
16.876261
14.741300
11.974750
8.834002
5.611238
2.606256
0.098617
-1.678354
-2.559252
-1.417149
2.104162
4.187323
2.445029
-2.580266
-9.009032
-14.503760
-17.080030
-17.538260
-17.548380
-17.706530
-18.673889
-20.394911
-22.275400
-23.632280
-23.839649
-21.809040
-17.367001
-11.159950
-4.186432
2.429660
7.622056
10.554020
12.246830
15.865650
18.191170
16.522421
11.906130
7.186939
5.179614
6.964676
11.856690
18.056311
23.312090
25.707939
23.879030
20.223270
17.903509
12.371470
4.381560
-1.240865
-4.902228
-11.923780
-16.483141
-15.077800
-10.006200
-4.948676
-2.746855
-0.001508
5.155116
11.361820
16.379141
18.327311
15.060700
7.580537
0.438280
-2.404641
-4.571341
-8.219617
-12.507520
-15.889760
-17.215059
-17.415039
-16.832279
-14.905100
-11.845500
-8.356780
-5.249310
-3.244854
-2.137874
1.819787
9.153314
17.457769
23.724609
25.884251
25.323429
23.537590
21.392891
19.674940
18.949100
18.105511
16.409330
14.266620
12.450620
11.598210
9.704882
5.125769
-1.023166
-6.523499
-9.376806
-10.228390
-11.217930
-12.752620
-14.493830
-16.036160
-17.020430
-18.981501
-22.708929
-21.545509
-18.406410
-17.407980
-17.327770
-17.270840
-11.899630
-9.860219
-9.286765
-8.435895
-7.320863
-6.072229
-4.837337
-3.761910
-2.972815
-2.563063
-2.473950
-2.467281
-2.485049
-2.816145
-3.627754
-4.895083
-6.526240
-8.401790
-10.384430
-12.329030
-14.093230
-15.547870
-16.586439
-17.132799
-17.255320
-17.260830
-17.258560
-17.256140
-17.253731
-17.251310
-17.248899
-17.246481
-17.244070
-17.241650
-17.201941
-16.865940
-16.141630
-15.098550
-13.863310
-12.586470
-11.423630
-10.516520
-9.975600
-7.935871
-3.650881
-1.958042
-0.745311
1.084298
3.345877
5.763547
8.042369
9.904360
11.122440
11.550250
11.185360
10.153670
8.702105
7.168803
5.910726
5.220861
1.361187
-1.686906
-2.326132
-2.341632
-2.503183
-3.042999
-3.996191
-5.324769
-6.973505
-8.873888
-10.946960
-13.106610
-15.263130
-17.326929
-19.212271
-20.840839
-22.144951
-23.070400
-23.578680
-23.655741
-23.335119
-22.668770
-21.736589
-20.648520
-19.532940
-18.521469
-17.733410
-17.261660
-17.044861
-16.397480
-15.033060
-13.008160
-10.469550
-7.602639
-4.616810
-1.730157
0.846480
2.924924
4.353419
5.027715
4.394313
2.109573
-0.586029
-1.981323
-2.235596
-2.240195
-2.237780
-2.250858
-2.520915
-3.177408
-4.170020
-5.378095
-6.653849
-7.841238
-8.795002
-9.398407
-9.379378
-6.654560
-1.514347
3.204700
4.902560
4.440252
2.835743
0.413892
-2.595201
-5.911595
-9.226786
-12.232380
-14.648760
-16.251089
-16.891331
-16.584700
-15.417030
-13.474750
-10.875340
-7.775515
-4.362169
-0.841115
2.575333
5.681176
8.289152
10.242050
11.422170
16.638130
17.360571
15.803910
13.872920
11.797490
9.765388
7.960476
6.546078
5.650227
5.257810
3.856894
1.215008
-1.183563
-2.012508
-2.112072
-2.112191
-2.109776
-2.205375
-2.736110
-3.750599
-5.096736
-6.557363
-7.896604
-8.898156
-9.400157
-9.098543
-7.717684
-5.642065
-3.620194
-2.385476
-2.093586
-2.073846
-2.071133
-2.068718
-2.066303
-2.063887
-2.061472
-2.059057
-2.056642
-2.054227
-3.089993
-9.601646
-15.491390
-16.610970
-15.940760
-14.786930
-13.370920
-11.920560
-10.669250
-9.818271
-9.492392
-9.440072
-9.436338
-9.433923
-9.431508
-9.429092
-9.426678
-9.424262
-9.421847
-9.419432
-9.417017
-9.414601
-9.412186
-9.409771
-9.407355
-9.404941
-9.402525
-9.400110
-9.624319
-12.300520
-15.682980
-16.670780
-16.494869
-15.994490
-15.280380
-14.406170
-13.435590
-12.439410
-11.490280
-10.657390
-10.001470
-9.570276
-9.393691
-9.362247
-9.359053
-9.356637
-9.354222
-9.351807
-9.349392
-9.346976
-9.303033
-8.957368
-8.223540
-7.173797
-5.935601
-4.659860
-3.502068
-2.603311
-2.073048
-2.060417
-3.000128
-4.935233
-7.576417
-10.498030
-13.228670
-15.327700
-16.456310
-16.547501
-15.865420
-14.567460
-12.779690
-10.668140
-8.428863
-6.269794
-4.391400
-2.968062
-2.131862
-1.870033
-1.671354
-1.297900
-0.739781
-0.028984
0.792703
1.676952
2.571744
3.424438
4.184875
4.808342
5.258204
5.508063
5.382303
4.281240
2.334810
