EVENT_NAME: 
EVENT_ID: TU-1976-0001
EVENT_DATE_YYYYMMDD: 19760819
EVENT_TIME_HHMMSS: 011239
EVENT_LATITUDE_DEGREE: 37.7110
EVENT_LONGITUDE_DEGREE: 29.0009
EVENT_DEPTH_KM: 19.8
HYPOCENTER_REFERENCE: GDDA
MAGNITUDE_W: 6.1
MAGNITUDE_W_REFERENCE: Vannucci G. and Gasperini P. (2004)
MAGNITUDE_L: 5.0
MAGNITUDE_L_REFERENCE: GDDA
FOCAL_MECHANISM: NF
NETWORK: TU
STATION_CODE: 2001
STATION_NAME: AI_107_DNZ_MET
STATION_LATITUDE_DEGREE: 37.762190
STATION_LONGITUDE_DEGREE: 29.092220
STATION_ELEVATION_M: 
LOCATION: 
VS30_M/S: 345
SITE_CLASSIFICATION_EC8: 
MORPHOLOGIC_CLASSIFICATION: 
EPICENTRAL_DISTANCE_KM: 9.9
EARTHQUAKE_BACKAZIMUTH_DEGREE: 234.8
DATE_TIME_FIRST_SAMPLE_YYYYMMDD_HHMMSS: 19760819_011240.000
DATE_TIME_FIRST_SAMPLE_PRECISION: seconds
SAMPLING_INTERVAL_S: 0.010000
NDATA: 1601
DURATION_S: 16.000000
STREAM: HNE
UNITS: cm/s^2
INSTRUMENT: sensor = SMA-1 [Kinemetrics] | digitizer = Film [generic]
INSTRUMENT_ANALOG/DIGITAL: A
INSTRUMENTAL_FREQUENCY_HZ: 
INSTRUMENTAL_DAMPING: 
FULL_SCALE_G: 
N_BIT_DIGITAL_CONVERTER: 
PGA_CM/S^2: -290.355988
TIME_PGA_S: 3.040000
BASELINE_CORRECTION: BASELINE NOT REMOVED
FILTER_TYPE: 
FILTER_ORDER: 
LOW_CUT_FREQUENCY_HZ: 
HIGH_CUT_FREQUENCY_HZ: 
LATE/NORMAL_TRIGGERED: NT
DATABASE_VERSION: DYNA 1.0
HEADER_FORMAT: DYNA 1.0
DATA_TYPE: ACCELERATION
PROCESSING: none
DATA_TIMESTAMP_YYYYMMDD_HHMMSS: 
USER1: 
USER2: 
USER3: 
USER4: 
-47.950600
-47.952518
-46.140579
-41.740459
-40.475788
-40.455929
-40.435680
-40.392578
-40.406158
-40.427261
-40.413601
-40.362469
-40.388420
-40.386688
-40.384960
-36.062279
-37.609421
-39.846119
-40.332470
-40.345951
-40.323509
-40.089230
-37.719490
-34.712780
-34.546959
-38.353458
-43.754082
-47.058620
-42.118118
-40.348190
-40.083450
-37.623150
-34.556259
-35.804840
-42.548161
-46.832390
-47.646912
-45.818569
-42.241501
-40.189690
-37.263680
-34.333900
-46.507519
-52.352230
-47.129761
-41.497299
-40.200069
-39.135319
-36.094101
-34.017590
-38.270050
-44.039749
-46.442169
-43.673531
-38.562580
-34.611511
-34.198341
-33.625950
-34.069180
-44.121670
-44.425060
-37.871979
-34.068001
-33.376709
-33.343632
-33.379490
-33.746208
-36.692760
-39.353222
-39.930801
-39.987598
-38.120670
-28.804960
-29.748220
-36.864361
-41.972290
-45.553028
-36.400822
-22.972820
-28.274910
-37.525711
-39.766979
-39.899181
-39.907829
-42.487820
-39.905399
-34.653488
-39.343361
-50.357140
-45.866840
-30.042231
-20.434099
-24.276409
-39.303329
-49.779671
-59.424629
-59.613461
-56.196751
-48.194328
-36.384029
-33.209919
-34.623680
-37.917728
-38.594509
-30.482340
-20.907709
-30.168530
-40.520672
-45.320850
-41.335609
-39.751801
-39.678410
-38.117989
-27.218241
-14.640720
-4.439409
-7.812070
-27.166189
-35.377670
-38.652840
-32.816429
-28.643841
-33.355820
-55.117889
-52.298180
-47.735802
-45.095360
-31.526800
-15.738750
-17.295601
-34.591389
-54.560131
-47.029720
-31.134701
-31.334120
-38.743191
-50.296822
-59.684120
-87.493736
-90.711472
-68.263153
-31.241390
9.544208
42.651520
58.808140
32.850208
-35.029530
-86.034683
-88.295174
-62.035919
-27.686440
-3.223128
-10.495560
-56.550091
-79.725922
-83.035889
-70.784393
-49.713970
-40.644699
-39.458179
-46.375332
-57.404400
-55.727791
-29.530230
-3.226219
3.556718
3.903351
3.147501
-20.603769
-47.413551
-45.032902
-38.061138
-27.656799
-19.491369
-37.104050
-70.768959
-85.238876
-88.227440
-75.275574
-59.117390
-51.655861
-39.968571
-24.232370
-13.062830
-13.789050
-22.182961
-58.211250
-84.349442
-79.155746
-80.468651
-82.754601
-83.590858
-89.455032
-95.655243
-85.178093
-54.143761
-30.312531
-25.122120
-19.260790
5.190716
27.653320
37.150261
36.678410
19.090309
6.729384
4.288004
-6.304428
-9.795376
-9.873960
-9.881463
-9.890471
11.390270
27.440460
22.098709
24.156179
35.394741
47.699329
53.525269
44.498089
43.622810
52.246811
65.627739
79.203781
88.473831
96.435966
127.017799
161.020798
154.059494
75.656807
-34.150730
-104.093498
-110.432701
-84.459938
-48.598991
-20.315281
-18.693029
-81.205276
-186.431503
-269.123688
-282.101990
-242.487595
-198.937607
-186.061798
-184.127502
-174.715393
-157.288101
-140.947800
-172.584106
-235.106201
-233.604904
-197.592606
-153.363800
-113.667099
-89.375763
-100.316101
-106.862297
-52.303242
32.398609
81.884521
97.232590
114.016502
139.538300
169.244995
197.397903
218.560104
228.652298
210.680695
161.263794
118.576599
109.014999
113.811996
121.416801
126.920502
116.295799
61.165779
-27.521450
-114.914101
-165.807602
-176.671997
-179.263306
-183.415802
-184.592804
-192.752502
-215.659897
-239.463394
-242.669205
-197.630203
-130.248901
-93.071983
-27.262449
13.338120
31.429899
51.322689
69.565147
76.853104
77.934196
77.944267
83.389030
90.758293
98.094238
104.973503
-4.316192
-236.146805
-290.355988
-245.890594
-174.705200
-105.530098
-63.563770
-45.965179
-19.553511
0.505454
9.595043
14.661390
27.926710
50.460449
75.879242
96.323967
102.911903
-42.176670
-106.282303
-96.091957
-67.668312
-42.714722
-32.968590
-31.516581
-27.648960
-20.266001
-22.854490
-61.395081
-107.324799
-91.172478
-82.461594
-74.075691
-37.495750
4.081336
16.070221
1.883167
-25.958590
-54.383961
-70.937973
-67.716087
-50.518520
-39.359909
-27.652290
-27.499880
-38.911942
-52.714500
-59.050190
-55.590240
-48.578869
-45.781811
-46.108009
-54.469181
-64.218437
-57.310329
-28.625059
-6.940601
-2.337010
0.007824
9.332035
22.473940
31.880230
35.614681
41.238480
48.859791
54.435921
51.858921
34.227180
11.472900
0.223901
5.215355
15.957600
15.651890
-8.249831
-42.717541
-62.730820
-45.600800
-0.619206
28.554380
37.543800
46.434429
59.531952
74.288406
87.581581
96.602211
6.768420
-58.136669
-81.099663
-95.348396
-101.789001
-93.059097
-68.765152
-35.486721
-2.959107
19.286119
18.521549
-38.825390
-114.461502
-155.980301
-182.173904
-172.377106
-137.061401
-90.575241
-45.577499
-14.137420
-1.379613
9.944001
18.269440
28.982071
34.628639
40.936489
47.568748
45.024509
30.225920
18.648600
2.046342
-39.612171
-84.118950
-88.474243
-66.786163
-30.759470
12.675050
55.527489
89.916054
109.521400
105.017097
61.009628
-12.889950
-90.521072
-143.856400
-187.302994
-217.102600
-209.415100
-178.631195
-134.474701
-82.198463
-27.746750
22.688141
63.371971
89.682648
-30.160250
-86.346184
-114.551598
-141.087097
-150.527405
-133.551102
-92.567902
-37.679749
17.320480
58.606392
76.809227
100.235298
93.959183
50.399288
3.477405
-17.424471
-44.748619
-62.149990
-54.972271
-32.310959
-8.366643
3.710586
-1.474302
-20.713570
-45.526310
-65.347771
-72.121407
-68.153473
-61.788460
-63.613590
-78.184418
-86.445847
-80.136513
-61.990231
-36.201988
-7.822437
17.614380
35.151451
40.718922
24.688021
4.385215
-0.998854
-10.785130
-20.465759
-22.764259
-22.854601
-24.033489
-28.334610
-33.650131
-36.346069
-31.186741
-17.658010
-2.798845
4.028814
-31.820570
-36.756512
-18.077921
4.590636
18.313980
-0.232048
-42.617561
-55.036480
-53.407471
-61.371731
-70.935707
-62.093979
-33.595951
-12.402190
6.454165
9.409104
-6.605868
-33.019730
-58.021858
-70.811661
-65.233307
-48.350559
-38.964840
-42.461842
-41.885132
-35.467560
-27.758421
-17.860979
-10.375030
2.679098
17.809460
26.386290
18.898701
-4.591334
-27.777130
-34.109909
-30.926439
-24.648010
-19.002081
-8.495493
-2.513304
-11.918390
-33.280312
-52.319771
-62.583439
-60.754551
-53.531101
-45.402599
-39.215591
-42.444931
-43.950298
-44.012890
-50.065590
-64.674362
-70.980240
-62.244518
-41.851841
-16.438089
6.110388
18.812630
19.545111
12.720820
4.284661
0.128289
2.441174
10.020250
20.159161
29.424431
34.688290
20.487101
-26.479650
-72.643143
-88.023827
-95.832443
-100.688599
-75.967346
-59.785210
-48.032902
-30.698641
-10.727840
5.565514
13.058300
18.354620
27.741590
37.755070
38.483791
-12.441020
-29.018169
-41.855942
-63.752930
-71.492630
-70.548203
-67.856323
-65.851196
-61.603661
-46.821091
-26.306850
-11.370110
-9.620708
-19.298861
-33.069599
-41.758060
-62.801788
-69.616051
-61.622929
-45.750179
-26.263321
-7.379227
6.842756
13.330270
3.919635
-14.417090
-21.480631
-24.138840
-27.033020
-28.972940
-29.400181
-28.815981
-25.547630
-22.601320
-27.342930
-38.123859
-42.782589
-43.462841
-43.476810
-45.889481
-52.722889
-60.509220
-64.226723
-58.787769
-43.258640
-22.005011
-1.748237
11.090340
13.579740
9.100176
0.988305
-7.426236
-12.838930
-14.189710
-14.250630
-14.276410
-14.282520
-6.420230
13.902400
26.102699
14.975250
-16.225300
-53.324020
-79.433487
-86.205879
-84.731987
-81.057747
-76.964409
-73.797028
-72.503273
-72.315102
-72.324142
-69.367844
-57.892971
-39.564461
-20.142040
-5.854887
-0.707725
0.032780
0.004004
-0.015734
-1.365071
-10.137130
-23.589930
-33.222698
-34.396431
-31.311420
-29.073891
-23.845020
-16.874599
-15.367760
-22.160801
-35.678871
-52.230610
-67.307083
-76.797836
-79.348282
-79.863243
-85.517021
-96.405197
-105.666496
-106.643700
-97.051720
-79.496338
-59.562740
-43.637470
-36.649761
-32.936581
-26.738041
-18.617210
-11.291410
-7.254007
-4.395399
2.518865
13.668620
26.746929
38.962849
47.711361
50.785530
38.472591
12.984770
-7.878151
-16.711000
-22.155821
-38.351650
-63.694302
-82.196136
-78.565918
-73.042633
-71.792191
-69.134247
-62.681229
-52.801380
-40.587940
-27.409220
-14.743090
-4.009245
3.591922
7.215540
5.033745
-4.365891
-19.076191
-35.290569
-48.795151
-56.073551
-60.585770
-56.029030
-48.310631
-43.651619
-43.635262
-46.641022
-51.021641
-55.056549
-57.171700
-57.584438
-57.549881
-57.576801
-57.568840
-52.143600
-37.067551
-19.049170
-8.303896
-2.157475
-0.750267
-6.058405
-14.357120
-19.758221
-21.598339
-24.375271
-29.078621
-34.924690
-40.865662
-45.836720
-48.942390
-48.500500
-43.927792
-43.701641
-46.923512
-51.355598
-55.236481
-57.050461
-56.265190
-53.213840
-48.611721
-43.469528
-38.918411
-35.955391
-26.681299
0.063011
7.134843
4.943504
2.215561
1.144415
3.258237
8.718123
16.446871
24.763029
31.851139
36.168980
33.593498
13.471400
-19.823610
-51.820110
-68.177498
-74.921944
-86.105392
-102.863602
-120.937798
-135.582901
-142.946503
-142.089905
-134.575104
-121.952499
-106.136200
-89.509979
-74.580742
-63.597080
-58.207008
-54.209969
-45.544312
-35.192730
-29.237930
-23.954700
-11.857720
5.554853
22.725080
34.089420
36.433060
30.890341
19.267691
3.765257
-12.814840
-27.480471
-37.581779
-41.333591
-39.591160
-34.800930
-30.110781
-28.569401
-33.607159
-44.730289
-57.745071
-67.456543
-69.992027
-64.428726
-52.651810
-38.572281
-26.858589
-21.368099
-21.334110
-23.747990
-26.396601
-27.640751
-30.125080
-33.378010
-34.801899
-36.979092
-39.843788
-41.533871
-41.997131
-42.664490
-43.849159
-45.348011
-46.889870
-48.196499
-49.028191
-49.060791
-44.860920
-35.299129
-23.065269
-12.237550
-6.434118
-5.834645
-7.926603
-11.575020
-16.091730
-20.667130
-24.481590
-26.847240
-38.546211
-45.252892
-48.439751
-54.294289
-65.499611
-69.592339
-67.138687
-64.090942
-66.138397
-73.460541
-77.156288
-72.724083
-61.581730
-47.539711
-35.258469
-28.803030
-26.677170
-24.323620
-21.676559
-20.219721
-17.315399
-10.330980
0.003339
11.492720
21.663960
28.331551
30.313330
29.087469
26.562099
24.627960
20.790701
4.438159
-21.833780
-47.083221
-60.427441
-78.305672
-82.315514
-73.276062
-60.157410
-51.168339
-47.363819
-41.233589
-33.405960
-28.412630
-31.887329
-42.616280
-47.809879
-46.868210
-42.917419
-37.095581
-30.092510
-22.713289
-15.807270
-10.168110
-6.440538
-4.552326
0.273402
0.314804
-3.021814
-4.519675
-4.751704
-6.751641
-11.866440
-18.552050
-24.219761
-26.656981
-25.152800
-20.428511
-14.149580
-8.471875
-5.337714
-4.703244
-4.630928
-4.659520
-4.760399
-13.786590
-28.158991
-33.134521
-33.684090
-33.712330
-35.936901
-39.603088
-40.736149
-39.561069
-37.067940
-33.913071
-30.788290
-28.374769
-27.248711
-37.475189
-40.912151
-41.089931
-40.923870
-39.020779
-34.734520
-28.566450
-21.481581
-14.598270
-9.002393
-5.571948
-5.140461
-8.293077
-11.224660
-11.022210
-8.733538
-6.088195
-4.735091
-8.944589
-16.287050
-19.558479
-23.428150
-28.847309
-32.566010
-32.791981
-30.910419
-28.519239
-27.067690
-26.748631
-26.774790
-27.700649
-31.997200
-33.281780
-33.365059
-33.406738
-33.673840
-39.399410
-50.319019
-59.504669
-61.530022
-58.560650
-53.036369
-47.008678
-42.550419
-40.950340
-40.722698
-40.768791
-40.783119
-40.151199
-36.959480
-31.446960
-25.412621
-20.924879
-19.295349
-19.056190
-19.100780
-19.127380
-18.670910
-15.432930
-10.059960
-5.618606
-5.555236
-13.104880
-24.351521
-31.575600
-33.465240
-34.971741
-37.160511
-39.230289
-40.356350
-39.879940
-37.709641
-35.018150
-33.409531
-35.747299
-42.942890
-50.976261
-54.747971
-54.202801
-51.704731
-49.203701
-48.035679
-46.729679
-44.305199
-41.051830
-37.671841
-34.904060
-33.346989
-32.945820
-32.943359
-32.996208
-32.951900
-30.212099
-23.380211
-15.823150
-12.052200
-13.534040
-18.546061
-23.715540
-25.868790
-26.220051
-26.248190
-27.128300
-31.003700
-37.164028
-43.262470
-46.923641
-47.378860
-46.135208
-44.152611
-42.128719
-40.738560
-41.045471
-44.383968
-47.113041
-46.041069
-41.164558
-33.351582
-23.822910
-14.066790
-5.607561
0.236382
2.538438
0.195858
-6.769003
-16.716080
-27.133850
-35.389030
-39.386871
-40.942009
-43.403519
-46.154900
-47.718269
-53.233501
-53.311031
-48.031952
-40.139359
-32.374119
-27.382839
-26.040100
-25.960730
-25.943199
-26.949659
-29.953930
-34.124210
-37.850330
-39.676319
-39.080589
-36.736279
-34.111820
-32.755360
-32.476101
-32.508678
-32.544998
-32.274799
-29.767540
-24.695610
-18.593500
-13.548790
-11.288280
-12.823950
-17.748890
-24.186359
-29.632040
-37.513500
-37.520538
-32.850491
-28.095011
-26.045420
-25.700609
-25.737610
-25.771610
-25.906380
-28.486151
-33.935009
-40.373280
-45.302540
-46.876930
-45.415070
-41.795799
-36.946251
-31.983891
-28.049509
-26.039860
-28.925840
-35.930630
-39.186581
-39.672218
-39.740410
-39.755630
-40.336941
-43.983631
-49.535160
-53.572540
-54.374371
-53.790119
-52.711929
-51.359341
-49.933590
-48.646671
-47.687401
-47.181759
-46.242580
-44.034229
-40.656872
-36.612579
-32.516830
-28.993200
-26.574720
-25.405701
-21.409679
-13.738800
-6.379332
-3.658739
-6.292241
-11.880490
-16.493561
-17.648550
-17.184481
-16.178940
-14.882090
-13.480550
-12.174710
-11.149540
-10.544830
-13.432650
-21.105780
-24.905121
-27.247030
-30.893539
-35.089149
-38.223660
-39.236530
-39.386238
-39.409821
-38.825741
-36.757999
-34.044811
-32.282749
-31.834400
-31.811541
-31.870489
-31.920340
-31.885460
-31.493679
-30.307320
-28.535999
-26.753860
-25.548420
-25.588890
-27.816851
-31.718901
-35.808651
-38.494720
-38.770538
-36.708851
-33.084629
-29.145390
-26.241079
-25.185711
-24.993010
-24.999010
-25.061390
-25.125570
-25.139820
-25.064190
-25.820520
-28.031931
-30.454359
-31.413380
-30.231871
-27.047190
-22.347931
-16.847540
-11.384600
-6.791811
-3.765343
-2.783404
-4.145837
-6.944477
-9.264263
-10.569990
-14.508810
-20.244270
-24.048031
-24.818520
-24.873020
-24.925320
-24.887529
-26.083290
-29.795990
-35.735710
-42.882309
-49.998459
-55.852001
-59.424671
-60.155510
-58.366268
-54.653568
-49.855019
-45.025940
-41.227692
-39.287472
-37.425350
-32.725182
-25.062540
-15.598670
-5.811463
2.769802
8.807345
11.320750
7.495810
0.581048
-1.925675
-2.216652
-2.280860
-2.277635
-6.939419
-21.287319
-29.633249
-29.935169
-27.680361
-25.547050
-24.710051
-24.621321
-24.615141
-24.580990
-24.616489
-24.589199
-24.917110
-25.876591
-27.422409
-29.395140
-31.592880
-33.792381
-35.770222
-37.324020
-38.291599
-38.568649
-38.217079
-37.362209
-36.139851
-34.728699
-33.338390
-32.175060
-31.406910
-31.406940
-33.507629
-37.495850
-41.895710
-44.999008
-45.786308
-45.142368
-43.663620
-41.509521
-38.798828
-35.680180
-32.325932
-28.922190
-25.657909
-22.713930
-20.252470
-18.407640
-17.277710
-17.106710
-18.982870
-22.944700
-28.069611
-33.084499
-36.740681
-38.122879
-37.133621
-34.617142
-32.120369
-31.041349
-30.888960
-30.906960
-31.098709
-32.319210
-34.417580
-36.587662
-37.967880
-38.456409
-39.621181
-41.676628
-43.873989
-45.342770
-44.437630
-37.883621
-32.125542
-30.467060
-29.504841
-28.164070
-26.673429
-25.342279
-24.443029
-24.105740
-24.095659
-24.077921
-24.025351
-24.055389
-24.104790
-24.048410
-23.564659
-22.468691
-20.919470
-19.237570
-17.776320
-16.837910
-16.933910
-19.143110
-23.033171
-27.130680
-29.841520
-30.504881
-30.567711
-30.625271
-30.617519
-38.669701
-44.257309
-44.793640
-43.814579
-42.495289
-41.066811
-39.741611
-38.714870
-38.131939
-37.123699
-34.443890
-30.573179
-26.820299
-24.468370
-23.849449
-23.840931
-23.812981
-23.766411
-23.803860
-23.843460
-23.863621
-25.129141
-27.601360
-29.720301
-30.267611
-30.097191
-29.746000
-29.294729
-28.760139
-28.161011
-27.519350
-26.859301
-26.205891
-25.583811
-25.016230
-24.523569
-24.122549
-23.825331
-23.432610
-21.807159
-19.213690
-17.010820
-16.708080
-20.027020
-25.422359
-29.292480
-29.868040
-28.736860
-26.728729
-24.184620
-21.486589
-19.040430
-17.211710
-16.267401
-17.479000
-21.921021
-28.269251
-34.066681
-37.050461
-36.675110
-33.960011
-30.069929
-26.346189
-24.061590
-23.448259
-23.375330
-23.410259
-23.479481
-23.527170
-23.503260
-23.856279
-26.651541
-29.385201
-29.981680
-30.029020
-30.080160
-30.032200
-29.932501
-29.881960
-29.894819
-29.951191
-30.024851
-30.087450
-30.112020
-30.076260
-30.045980
-32.406689
-36.030369
-37.052040
-36.054970
-34.153629
-32.085869
-30.544701
-29.950729
-29.862551
-29.913891
-29.924259
-29.556129
-27.969290
-25.065510
-21.248840
-17.097771
-13.244500
-10.274100
-8.631887
-8.883820
-11.560490
-15.828770
-20.040800
-22.556110
-23.062840
-23.106510
-23.161860
-23.132990
-23.337690
-24.304260
-26.046869
-28.334110
-30.861031
-33.292751
-35.306301
-36.630840
-37.080101
-36.470089
-34.879551
-32.801498
-30.928619
-29.880400
-29.827181
-30.586540
-32.015862
-33.962582
-36.227100
-38.579670
-40.782169
-42.610722
-43.876942
-44.445820
-43.860481
-41.355270
-37.191280
-32.262951
-27.653980
-24.375771
-23.069611
-22.822109
-22.839840
-22.905319
-22.932190
-22.846411
-22.325220
-21.196859
-19.631020
-17.952250
-16.513140
-15.610770
-15.310540
-15.295500
-15.350720
-15.329630
-15.256880
-15.273100
-15.327690
-15.295740
-15.335220
-15.762820
-16.632460
-17.884380
-19.432079
-21.170891
-22.984400
-24.751619
-26.354410
-27.684700
-28.651180
-29.184870
-29.266001
-29.200300
-29.180510
-29.221411
-29.292120
-29.355709
-29.376400
-29.325371
-29.211781
-29.151609
-29.173750
-29.240400
-29.297029
-29.291389
-29.175779
-28.763250
-27.976801
-26.895781
-25.668369
-24.467030
-23.460051
-22.784401
-22.490080
-22.403790
-22.418739
-22.483170
-22.544960
-22.552919
-22.551821
-27.418921
-28.950130
-28.966789
-28.988560
-29.052521
-29.123060
-29.163280
-29.141171
-29.045679
-29.035469
-28.604940
-27.352060
-25.554680
-23.801241
-22.669010
-22.387140
-22.702900
-23.481951
-24.658970
-26.151911
-27.859449
-29.667120
-31.454281
-33.101559
-34.498180
-35.548740
-36.179111
-36.333790
-35.316540
-32.977051
